ORBCOMM FM20 [+]        
1 25416U 98046D   23347.87624895  .00000640  00000+0  27344-3 0  9995
2 25416  44.9951 266.6070 0001812 335.1858  24.8901 14.34686055325022
ORBCOMM FM16 [-]        
1 25417U 98046E   23348.13420251  .00000928  00000+0  36870-3 0  9999
2 25417  44.9948 262.1551 0004529  30.8183 329.2929 14.35466592325207
ORBCOMM FM15 [-]        
1 25418U 98046F   23347.92472092  .00000866  00000+0  34913-3 0  9993
2 25418  44.9982 266.8706 0004080  29.4605 330.6471 14.35219894325135
ORBCOMM FM14 [-]        
1 25419U 98046G   23347.91683891  .00000886  00000+0  35493-3 0  9990
2 25419  44.9973 266.1941 0003194  12.1807 103.6739 14.35339517324913
ORBCOMM FM13 [+]        
1 25420U 98046H   23347.87261667  .00000753  00000+0  31279-3 0  9991
2 25420  44.9986 270.5176 0005377  16.9593 343.1432 14.34749818325119
ORBCOMM FM21 [-]        
1 25475U 98053A   23347.88990688  .00000696  00000+0  29266-3 0  9991
2 25475  45.0106 354.5880 0002373 288.5870  71.4719 14.34748846318007
ORBCOMM FM22 [-]        
1 25476U 98053B   23347.98518019  .00000881  00000+0  35460-3 0  9996
2 25476  45.0102 351.9591 0003886 310.1712  49.8795 14.35155226318368
ORBCOMM FM23 [-]        
1 25477U 98053C   23346.94547136  .00000892  00000+0  36149-3 0  9991
2 25477  45.0108   1.4914 0003289 297.3035  62.7477 14.34741449318012
